start=new Date('2023-03-13T00:00:00.000Z').valueOf();
sats=[{"TLE_LINE1":"1 51747U 22016AK  23071.72772503  .00005113  00000-0  33903-3 0  9992","BSTAR":"0.00033903000000","CENTER_NAME":"EARTH","OBJECT_TYPE":"PAYLOAD","PERIOD":"95.437","MEAN_MOTION":"15.08850260","REV_AT_EPOCH":"5856","DECAY_DATE":null,"SEMIMAJOR_AXIS":"6917.849","TLE_LINE2":"2 51747  53.2159 185.6171 0001833 105.3615 254.7580 15.08850260 58566","MEAN_ANOMALY":"254.7580","ECCENTRICITY":"0.00018330","MEAN_MOTION_DDOT":"0.0000000000000","MEAN_ELEMENT_THEORY":"SGP4","EPOCH":"2023-03-12T17:27:55.442592","REF_FRAME":"TEME","RA_OF_ASC_NODE":"185.6171","ELEMENT_SET_NO":"999","EPHEMERIS_TYPE":"0","MEAN_MOTION_DOT":"0.00005113","RCS_SIZE":"LARGE","SITE":"AFETR","CLASSIFICATION_TYPE":"U","PERIAPSIS":"538.446","LAUNCH_DATE":"2022-02-21","OBJECT_NAME":"STARLINK-3446","INCLINATION":"53.2159","GP_ID":"227963856","TIME_SYSTEM":"UTC","APOAPSIS":"540.982","ARG_OF_PERICENTER":"105.3615","FILE":"3858743","COUNTRY_CODE":"US","OBJECT_ID":"2022-016AK","NORAD_CAT_ID":"51747"},{"NORAD_CAT_ID":"51748","FILE":"3858743","COUNTRY_CODE":"US","OBJECT_ID":"2022-016AL","APOAPSIS":"540.199","TIME_SYSTEM":"UTC","ARG_OF_PERICENTER":"108.7608","PERIAPSIS":"539.392","RCS_SIZE":"LARGE","SITE":"AFETR","CLASSIFICATION_TYPE":"U","GP_ID":"227964606","LAUNCH_DATE":"2022-02-21","OBJECT_NAME":"STARLINK-3501","INCLINATION":"53.2151","EPHEMERIS_TYPE":"0","MEAN_MOTION_DOT":"0.00006725","ELEMENT_SET_NO":"999","MEAN_MOTION_DDOT":"0.0000000000000","MEAN_ELEMENT_THEORY":"SGP4","EPOCH":"2023-03-12T16:20:24.014400","REF_FRAME":"TEME","RA_OF_ASC_NODE":"175.8272","TLE_LINE2":"2 51748  53.2151 175.8272 0000583 108.7608 251.3448 15.08823579 58695","DECAY_DATE":null,"SEMIMAJOR_AXIS":"6917.931","MEAN_ANOMALY":"251.3448","ECCENTRICITY":"0.00005830","CENTER_NAME":"EARTH","OBJECT_TYPE":"PAYLOAD","TLE_LINE1":"1 51748U 22016AL  23071.68083350  .00006725  00000-0  44038-3 0  9994","BSTAR":"0.00044038000000","REV_AT_EPOCH":"5869","MEAN_MOTION":"15.08823579","PERIOD":"95.439"},{"MEAN_MOTION_DDOT":"0.0000000000000","MEAN_ELEMENT_THEORY":"SGP4","REF_FRAME":"TEME","RA_OF_ASC_NODE":"185.4782","EPOCH":"2023-03-12T18:11:43.499904","MEAN_MOTION_DOT":"0.00016993","EPHEMERIS_TYPE":"0","ELEMENT_SET_NO":"999","CENTER_NAME":"EARTH","OBJECT_TYPE":"PAYLOAD","TLE_LINE1":"1 51749U 22016AM  23071.75814236  .00016993  00000-0  10826-2 0  9993","BSTAR":"0.00108260000000","REV_AT_EPOCH":"5856","MEAN_MOTION":"15.08860734","PERIOD":"95.436","TLE_LINE2":"2 51749  53.2157 185.4782 0001496  96.7258 263.3904 15.08860734 58566","DECAY_DATE":null,"SEMIMAJOR_AXIS":"6917.817","MEAN_ANOMALY":"263.3904","ECCENTRICITY":"0.00014960","FILE":"3858743","COUNTRY_CODE":"US","OBJECT_ID":"2022-016AM","NORAD_CAT_ID":"51749","PERIAPSIS":"538.647","RCS_SIZE":"LARGE","SITE":"AFETR","CLASSIFICATION_TYPE":"U","GP_ID":"227962856","LAUNCH_DATE":"2022-02-21","INCLINATION":"53.2157","OBJECT_NAME":"STARLINK-3451","APOAPSIS":"540.717","TIME_SYSTEM":"UTC","ARG_OF_PERICENTER":"96.7258"},{"ARG_OF_PERICENTER":"86.8150","TIME_SYSTEM":"UTC","APOAPSIS":"540.700","INCLINATION":"53.2148","OBJECT_NAME":"STARLINK-3505","LAUNCH_DATE":"2022-02-21","GP_ID":"227963106","SITE":"AFETR","CLASSIFICATION_TYPE":"U","RCS_SIZE":"LARGE","PERIAPSIS":"538.684","NORAD_CAT_ID":"51750","OBJECT_ID":"2022-016AN","COUNTRY_CODE":"US","FILE":"3858743","ECCENTRICITY":"0.00014570","MEAN_ANOMALY":"273.3009","SEMIMAJOR_AXIS":"6917.827","DECAY_DATE":null,"TLE_LINE2":"2 51750  53.2148 175.8620 0001457  86.8150 273.3009 15.08857561 58695","PERIOD":"95.436","MEAN_MOTION":"15.08857561","REV_AT_EPOCH":"5869","BSTAR":"0.00267420000000","TLE_LINE1":"1 51750U 22016AN  23071.67347259  .00042550  00000-0  26742-2 0  9994","OBJECT_TYPE":"PAYLOAD","CENTER_NAME":"EARTH","ELEMENT_SET_NO":"999","MEAN_MOTION_DOT":"0.00042550","EPHEMERIS_TYPE":"0","EPOCH":"2023-03-12T16:09:48.031776","REF_FRAME":"TEME","RA_OF_ASC_NODE":"175.8620","MEAN_ELEMENT_THEORY":"SGP4","MEAN_MOTION_DDOT":"0.0000000000000"},{"SITE":"AFETR","CLASSIFICATION_TYPE":"U","RCS_SIZE":"LARGE","PERIAPSIS":"538.955","INCLINATION":"53.2159","OBJECT_NAME":"STARLINK-3506","LAUNCH_DATE":"2022-02-21","GP_ID":"227964356","TIME_SYSTEM":"UTC","APOAPSIS":"540.508","ARG_OF_PERICENTER":"106.8366","COUNTRY_CODE":"US","FILE":"3858743","OBJECT_ID":"2022-016AP","NORAD_CAT_ID":"51751","BSTAR":"0.00031102000000","TLE_LINE1":"1 51751U 22016AP  23071.68450987  .00004666  00000-0  31102-3 0  9992","OBJECT_TYPE":"PAYLOAD","CENTER_NAME":"EARTH","MEAN_MOTION":"15.08844523","PERIOD":"95.437","REV_AT_EPOCH":"5869","SEMIMAJOR_AXIS":"6917.867","DECAY_DATE":null,"TLE_LINE2":"2 51751  53.2159 175.8119 0001123 106.8366 253.2749 15.08844523 58695","ECCENTRICITY":"0.00011230","MEAN_ANOMALY":"253.2749","MEAN_MOTION_DDOT":"0.0000000000000","MEAN_ELEMENT_THEORY":"SGP4","EPOCH":"2023-03-12T16:25:41.652768","REF_FRAME":"TEME","RA_OF_ASC_NODE":"175.8119","ELEMENT_SET_NO":"999","MEAN_MOTION_DOT":"0.00004666","EPHEMERIS_TYPE":"0"},{"NORAD_CAT_ID":"51752","FILE":"3858743","COUNTRY_CODE":"US","OBJECT_ID":"2022-016AQ","TIME_SYSTEM":"UTC","APOAPSIS":"540.414","ARG_OF_PERICENTER":"119.6375","RCS_SIZE":"LARGE","SITE":"AFETR","CLASSIFICATION_TYPE":"U","PERIAPSIS":"539.123","LAUNCH_DATE":"2022-02-21","OBJECT_NAME":"STARLINK-3511","INCLINATION":"53.2146","GP_ID":"227964107","ELEMENT_SET_NO":"999","EPHEMERIS_TYPE":"0","MEAN_MOTION_DOT":"-0.00002324","MEAN_ELEMENT_THEORY":"SGP4","MEAN_MOTION_DDOT":"0.0000000000000","EPOCH":"2023-03-12T14:29:06.203328","REF_FRAME":"TEME","RA_OF_ASC_NODE":"176.1733","DECAY_DATE":null,"SEMIMAJOR_AXIS":"6917.904","TLE_LINE2":"2 51752  53.2146 176.1733 0000933 119.6375 240.4710 15.08832381 58682","MEAN_ANOMALY":"240.4710","ECCENTRICITY":"0.00009330","TLE_LINE1":"1 51752U 22016AQ  23071.60354402 -.00002324  00000-0 -12801-3 0  9996","BSTAR":"-0.00012801000000","CENTER_NAME":"EARTH","OBJECT_TYPE":"PAYLOAD","MEAN_MOTION":"15.08832381","PERIOD":"95.438","REV_AT_EPOCH":"5868"},{"TIME_SYSTEM":"UTC","APOAPSIS":"540.474","ARG_OF_PERICENTER":"120.1684","CLASSIFICATION_TYPE":"U","SITE":"AFETR","RCS_SIZE":"LARGE","PERIAPSIS":"538.939","INCLINATION":"53.2137","OBJECT_NAME":"STARLINK-3507","LAUNCH_DATE":"2022-02-21","GP_ID":"227939816","NORAD_CAT_ID":"51753","COUNTRY_CODE":"US","FILE":"3858711","OBJECT_ID":"2022-016AR","SEMIMAJOR_AXIS":"6917.841","DECAY_DATE":null,"TLE_LINE2":"2 51753  53.2137 176.4394 0001109 120.1684 239.9418 15.08852729 59738","ECCENTRICITY":"0.00011090","MEAN_ANOMALY":"239.9418","BSTAR":"0.00286350000000","TLE_LINE1":"1 51753U 22016AR  23071.54467486  .00045596  00000-0  28635-2 0  9994","OBJECT_TYPE":"PAYLOAD","CENTER_NAME":"EARTH","MEAN_MOTION":"15.08852729","PERIOD":"95.437","REV_AT_EPOCH":"5973","ELEMENT_SET_NO":"999","EPHEMERIS_TYPE":"0","MEAN_MOTION_DOT":"0.00045596","MEAN_MOTION_DDOT":"0.0000000000000","MEAN_ELEMENT_THEORY":"SGP4","RA_OF_ASC_NODE":"176.4394","EPOCH":"2023-03-12T13:04:19.907904","REF_FRAME":"TEME"},{"MEAN_ANOMALY":"264.9185","ECCENTRICITY":"0.00021530","TLE_LINE2":"2 51754  53.2133 175.6071 0002153  95.2053 264.9185 15.08830075 58705","DECAY_DATE":null,"SEMIMAJOR_AXIS":"6917.911","REV_AT_EPOCH":"5870","MEAN_MOTION":"15.08830075","PERIOD":"95.438","CENTER_NAME":"EARTH","OBJECT_TYPE":"PAYLOAD","TLE_LINE1":"1 51754U 22016AS  23071.72963590  .00005288  00000-0  35020-3 0  9993","BSTAR":"0.00035020000000","MEAN_MOTION_DOT":"0.00005288","EPHEMERIS_TYPE":"0","ELEMENT_SET_NO":"999","REF_FRAME":"TEME","RA_OF_ASC_NODE":"175.6071","EPOCH":"2023-03-12T17:30:40.541760","MEAN_ELEMENT_THEORY":"SGP4","MEAN_MOTION_DDOT":"0.0000000000000","ARG_OF_PERICENTER":"95.2053","APOAPSIS":"541.265","TIME_SYSTEM":"UTC","GP_ID":"227963605","LAUNCH_DATE":"2022-02-21","INCLINATION":"53.2133","OBJECT_NAME":"STARLINK-3457","PERIAPSIS":"538.286","RCS_SIZE":"LARGE","CLASSIFICATION_TYPE":"U","SITE":"AFETR","NORAD_CAT_ID":"51754","OBJECT_ID":"2022-016AS","FILE":"3858743","COUNTRY_CODE":"US"},{"NORAD_CAT_ID":"51755","OBJECT_ID":"2022-016AT","COUNTRY_CODE":"US","FILE":"3858743","ARG_OF_PERICENTER":"115.3483","TIME_SYSTEM":"UTC","APOAPSIS":"540.565","INCLINATION":"53.2145","OBJECT_NAME":"STARLINK-3460","LAUNCH_DATE":"2022-02-21","GP_ID":"227963857","CLASSIFICATION_TYPE":"U","SITE":"AFETR","RCS_SIZE":"LARGE","PERIAPSIS":"538.844","ELEMENT_SET_NO":"999","MEAN_MOTION_DOT":"0.00014005","EPHEMERIS_TYPE":"0","RA_OF_ASC_NODE":"175.8944","EPOCH":"2023-03-12T15:59:11.497920","REF_FRAME":"TEME","MEAN_ELEMENT_THEORY":"SGP4","MEAN_MOTION_DDOT":"0.0000000000000","ECCENTRICITY":"0.00012440","MEAN_ANOMALY":"244.7638","SEMIMAJOR_AXIS":"6917.840","DECAY_DATE":null,"TLE_LINE2":"2 51755  53.2145 175.8944 0001244 115.3483 244.7638 15.08853279 58699","PERIOD":"95.437","MEAN_MOTION":"15.08853279","REV_AT_EPOCH":"5869","BSTAR":"0.00089593000000","TLE_LINE1":"1 51755U 22016AT  23071.66610530  .00014005  00000-0  89593-3 0  9991","OBJECT_TYPE":"PAYLOAD","CENTER_NAME":"EARTH"},{"GP_ID":"227964607","OBJECT_NAME":"STARLINK-3513","INCLINATION":"53.2144","LAUNCH_DATE":"2022-02-21","PERIAPSIS":"538.858","CLASSIFICATION_TYPE":"U","SITE":"AFETR","RCS_SIZE":"LARGE","ARG_OF_PERICENTER":"115.6705","APOAPSIS":"540.621","TIME_SYSTEM":"UTC","OBJECT_ID":"2022-016AU","COUNTRY_CODE":"US","FILE":"3858743","NORAD_CAT_ID":"51756","REV_AT_EPOCH":"5873","MEAN_MOTION":"15.08841901","PERIOD":"95.437","OBJECT_TYPE":"PAYLOAD","CENTER_NAME":"EARTH","BSTAR":"0.00118050000000","TLE_LINE1":"1 51756U 22016AU  23071.90163252  .00018551  00000-0  11805-2 0  9993","ECCENTRICITY":"0.00012740","MEAN_ANOMALY":"244.4419","TLE_LINE2":"2 51756  53.2144 174.8381 0001274 115.6705 244.4419 15.08841901 58734","SEMIMAJOR_AXIS":"6917.875","DECAY_DATE":null,"REF_FRAME":"TEME","RA_OF_ASC_NODE":"174.8381","EPOCH":"2023-03-12T21:38:21.049728","MEAN_MOTION_DDOT":"0.0000000000000","MEAN_ELEMENT_THEORY":"SGP4","MEAN_MOTION_DOT":"0.00018551","EPHEMERIS_TYPE":"0","ELEMENT_SET_NO":"999"}];
